[{"OBJECT_NAME":"STARLINK-33823","OBJECT_ID":"2025-083AD","EPOCH":"2026-03-09T03:41:28.208544","MEAN_MOTION":15.27578959,"ECCENTRICITY":0.00016431,"INCLINATION":43.0046,"RA_OF_ASC_NODE":8.3424,"ARG_OF_PERICENTER":278.9634,"MEAN_ANOMALY":81.1032,"EPHEMERIS_TYPE":0,"CLASSIFICATION_TYPE":"U","NORAD_CAT_ID":63661,"ELEMENT_SET_NO":999,"REV_AT_EPOCH":5001,"BSTAR":0.0011033477,"MEAN_MOTION_DOT":0.00030223,"MEAN_MOTION_DDOT":0},{"OBJECT_NAME":"OPS 0252","OBJECT_ID":"1983-008A","EPOCH":"2026-03-09T17:05:48.785280","MEAN_MOTION":13.86595094,"ECCENTRICITY":0.06891162,"INCLINATION":63.3075,"RA_OF_ASC_NODE":208.1784,"ARG_OF_PERICENTER":134.6802,"MEAN_ANOMALY":231.2568,"EPHEMERIS_TYPE":0,"CLASSIFICATION_TYPE":"U","NORAD_CAT_ID":13791,"ELEMENT_SET_NO":999,"REV_AT_EPOCH":9249,"BSTAR":0.00087750094,"MEAN_MOTION_DOT":7.26e-5,"MEAN_MOTION_DDOT":0}]
